{
  "links" : {
    "next" : "https://api.nasa.gov/neo/rest/v1/feed?start_date=2010-07-09&end_date=2010-07-09&detailed=true&api_key=t0TVs3DtDT2H8Oy2Zy8m2eVrNsAVKAexjcZXUckd",
    "prev" : "https://api.nasa.gov/neo/rest/v1/feed?start_date=2010-07-07&end_date=2010-07-07&detailed=true&api_key=t0TVs3DtDT2H8Oy2Zy8m2eVrNsAVKAexjcZXUckd",
    "self" : "https://api.nasa.gov/neo/rest/v1/feed?start_date=2010-07-08&end_date=2010-07-08&detailed=true&api_key=t0TVs3DtDT2H8Oy2Zy8m2eVrNsAVKAexjcZXUckd"
  },
  "element_count" : 3,
  "near_earth_objects" : {
    "2010-07-08" : [ {
      "links" : {
        "self" : "https://api.nasa.gov/neo/rest/v1/neo/3363699?api_key=t0TVs3DtDT2H8Oy2Zy8m2eVrNsAVKAexjcZXUckd"
      },
      "neo_reference_id" : "3363699",
      "name" : "(2006 XR4)",
      "nasa_jpl_url" : "http://ssd.jpl.nasa.gov/sbdb.cgi?sstr=3363699",
      "absolute_magnitude_h" : 26.2,
      "estimated_diameter" : {
        "kilometers" : {
          "estimated_diameter_min" : 0.0152951935,
          "estimated_diameter_max" : 0.0342010925
        },
        "meters" : {
          "estimated_diameter_min" : 15.2951935344,
          "estimated_diameter_max" : 34.201092472
        },
        "miles" : {
          "estimated_diameter_min" : 0.0095039897,
          "estimated_diameter_max" : 0.021251567
        },
        "feet" : {
          "estimated_diameter_min" : 50.1810827555,
          "estimated_diameter_max" : 112.2083122258
        }
      },
      "is_potentially_hazardous_asteroid" : false,
      "close_approach_data" : [ {
        "close_approach_date" : "2010-07-08",
        "epoch_date_close_approach" : 1278572400000,
        "relative_velocity" : {
          "kilometers_per_second" : "15.9640641505",
          "kilometers_per_hour" : "57470.6309418846",
          "miles_per_hour" : "35710.015098306"
        },
        "miss_distance" : {
          "astronomical" : "0.240698879",
          "lunar" : "93.6318588257",
          "kilometers" : "36008040",
          "miles" : "22374358"
        },
        "orbiting_body" : "Earth"
      } ],
      "orbital_data" : {
        "orbit_id" : "8",
        "orbit_determination_date" : "2017-04-06 09:07:20",
        "orbit_uncertainty" : "7",
        "minimum_orbit_intersection" : ".00375541",
        "jupiter_tisserand_invariant" : "5.846",
        "epoch_osculation" : "2458000.5",
        "eccentricity" : ".2692252042558297",
        "semi_major_axis" : "1.040565531075227",
        "inclination" : "10.95070046304629",
        "ascending_node_longitude" : "263.0679127891219",
        "orbital_period" : "387.7060521301712",
        "perihelion_distance" : ".7604190634299232",
        "perihelion_argument" : "275.2888800357661",
        "aphelion_distance" : "1.320711998720531",
        "perihelion_time" : "2458031.969116793050",
        "mean_anomaly" : "330.779713178957",
        "mean_motion" : ".9285385100956098",
        "equinox" : "J2000"
      }
    }, {
      "links" : {
        "self" : "https://api.nasa.gov/neo/rest/v1/neo/3441127?api_key=t0TVs3DtDT2H8Oy2Zy8m2eVrNsAVKAexjcZXUckd"
      },
      "neo_reference_id" : "3441127",
      "name" : "(2008 XB2)",
      "nasa_jpl_url" : "http://ssd.jpl.nasa.gov/sbdb.cgi?sstr=3441127",
      "absolute_magnitude_h" : 25.1,
      "estimated_diameter" : {
        "kilometers" : {
          "estimated_diameter_min" : 0.0253837029,
          "estimated_diameter_max" : 0.0567596853
        },
        "meters" : {
          "estimated_diameter_min" : 25.3837029364,
          "estimated_diameter_max" : 56.7596852866
        },
        "miles" : {
          "estimated_diameter_min" : 0.0157726969,
          "estimated_diameter_max" : 0.0352688224
        },
        "feet" : {
          "estimated_diameter_min" : 83.279867942,
          "estimated_diameter_max" : 186.2194458756
        }
      },
      "is_potentially_hazardous_asteroid" : false,
      "close_approach_data" : [ {
        "close_approach_date" : "2010-07-08",
        "epoch_date_close_approach" : 1278572400000,
        "relative_velocity" : {
          "kilometers_per_second" : "25.615189007",
          "kilometers_per_hour" : "92214.6804250304",
          "miles_per_hour" : "57298.6162896529"
        },
        "miss_distance" : {
          "astronomical" : "0.4895219318",
          "lunar" : "190.4240264893",
          "kilometers" : "73231440",
          "miles" : "45503904"
        },
        "orbiting_body" : "Earth"
      } ],
      "orbital_data" : {
        "orbit_id" : "13",
        "orbit_determination_date" : "2017-04-06 09:01:57",
        "orbit_uncertainty" : "7",
        "minimum_orbit_intersection" : ".00540056",
        "jupiter_tisserand_invariant" : "5.375",
        "epoch_osculation" : "2458000.5",
        "eccentricity" : ".3768124145458345",
        "semi_major_axis" : "1.155512719428784",
        "inclination" : "2.425913636777211",
        "ascending_node_longitude" : "270.4029057447027",
        "orbital_period" : "453.6913743235701",
        "perihelion_distance" : ".7201011815824007",
        "perihelion_argument" : "259.1860544286578",
        "aphelion_distance" : "1.590924257275168",
        "perihelion_time" : "2458052.555584467061",
        "mean_anomaly" : "318.6943647846905",
        "mean_motion" : ".7934909508401852",
        "equinox" : "J2000"
      }
    }, {
      "links" : {
        "self" : "https://api.nasa.gov/neo/rest/v1/neo/3704765?api_key=t0TVs3DtDT2H8Oy2Zy8m2eVrNsAVKAexjcZXUckd"
      },
      "neo_reference_id" : "3704765",
      "name" : "(2015 BC92)",
      "nasa_jpl_url" : "http://ssd.jpl.nasa.gov/sbdb.cgi?sstr=3704765",
      "absolute_magnitude_h" : 21.8,
      "estimated_diameter" : {
        "kilometers" : {
          "estimated_diameter_min" : 0.1160259082,
          "estimated_diameter_max" : 0.2594418179
        },
        "meters" : {
          "estimated_diameter_min" : 116.0259082094,
          "estimated_diameter_max" : 259.4418179074
        },
        "miles" : {
          "estimated_diameter_min" : 0.0720951346,
          "estimated_diameter_max" : 0.1612096218
        },
        "feet" : {
          "estimated_diameter_min" : 380.6624406898,
          "estimated_diameter_max" : 851.1870938635
        }
      },
      "is_potentially_hazardous_asteroid" : false,
      "close_approach_data" : [ {
        "close_approach_date" : "2010-07-08",
        "epoch_date_close_approach" : 1278572400000,
        "relative_velocity" : {
          "kilometers_per_second" : "14.2851183869",
          "kilometers_per_hour" : "51426.4261929782",
          "miles_per_hour" : "31954.3813197425"
        },
        "miss_distance" : {
          "astronomical" : "0.4388737859",
          "lunar" : "170.7219085693",
          "kilometers" : "65654588",
          "miles" : "40795868"
        },
        "orbiting_body" : "Earth"
      } ],
      "orbital_data" : {
        "orbit_id" : "13",
        "orbit_determination_date" : "2017-04-06 08:36:13",
        "orbit_uncertainty" : "6",
        "minimum_orbit_intersection" : ".104424",
        "jupiter_tisserand_invariant" : "5.361",
        "epoch_osculation" : "2458000.5",
        "eccentricity" : ".04057859068793412",
        "semi_major_axis" : "1.16377565069911",
        "inclination" : "19.72805455901819",
        "ascending_node_longitude" : "296.7729780207632",
        "orbital_period" : "458.5665017737957",
        "perihelion_distance" : "1.116551274916807",
        "perihelion_argument" : "334.9401471446895",
        "aphelion_distance" : "1.211000026481414",
        "perihelion_time" : "2458146.644060670785",
        "mean_anomaly" : "245.2688505637175",
        "mean_motion" : ".7850551634440643",
        "equinox" : "J2000"
      }
    } ]
  }
}